{
  "type": "FeatureCollection",
  "features": [
    {
      "type": "Feature",
      "properties": {
        "norad_id": 40115,
        "name": "WORLDVIEW-3 (WV-3)",
        "group": "resource",
        "lat": -2.1709414133670633,
        "lon": 63.344681483487534,
        "alt_km": 618.7537948874051,
        "timestamp": "2025-12-16T19:34:23.922135+00:00",
        "meta_object_name": "WORLDVIEW-3 (WV-3)",
        "meta_object_id": "2014-048A",
        "meta_epoch": "2025-12-15T22:34:03.125280",
        "meta_mean_motion": 14.85519525,
        "meta_eccentricity": 0.00050314,
        "meta_inclination": 97.8614,
        "meta_ra_of_asc_node": 62.1804,
        "meta_arg_of_pericenter": 174.346,
        "meta_mean_anomaly": 185.7813,
        "meta_ephemeris_type": 0,
        "meta_classification_type": "U",
        "meta_norad_cat_id": 40115,
        "meta_element_set_no": 999,
        "meta_rev_at_epoch": 61471,
        "meta_bstar": 0.00013190448,
        "meta_mean_motion_dot": 1.086e-05,
        "meta_mean_motion_ddot": 0,
        "tle_line1": "1 40115U 14048A   25349.94031395  .00001086  00000+0  13190-3 0  9996",
        "tle_line2": "2 40115  97.8614  62.1804 0005031 174.3460 185.7813 14.85519525614710"
      },
      "geometry": {
        "type": "Point",
        "coordinates": [
          63.344681483487534,
          -2.1709414133670633
        ]
      }
    },
    {
      "type": "Feature",
      "properties": {
        "norad_id": 40118,
        "name": "GAOFEN-2",
        "group": "resource",
        "lat": 74.25561521413572,
        "lon": -99.92492381958441,
        "alt_km": 614.2323566343593,
        "timestamp": "2025-12-16T19:34:23.922146+00:00",
        "meta_object_name": "GAOFEN-2",
        "meta_object_id": "2014-049A",
        "meta_epoch": "2025-12-15T23:38:40.484256",
        "meta_mean_motion": 14.80615107,
        "meta_eccentricity": 0.00086522,
        "meta_inclination": 98.0384,
        "meta_ra_of_asc_node": 49.1593,
        "meta_arg_of_pericenter": 103.8455,
        "meta_mean_anomaly": 256.3721,
        "meta_ephemeris_type": 0,
        "meta_classification_type": "U",
        "meta_norad_cat_id": 40118,
        "meta_element_set_no": 999,
        "meta_rev_at_epoch": 61212,
        "meta_bstar": 8.7779571e-05,
        "meta_mean_motion_dot": 6.2e-06,
        "meta_mean_motion_ddot": 0,
        "tle_line1": "1 40118U 14049A   25349.98519079  .00000620  00000+0  87780-4 0  9994",
        "tle_line2": "2 40118  98.0384  49.1593 0008652 103.8455 256.3721 14.80615107612127"
      },
      "geometry": {
        "type": "Point",
        "coordinates": [
          -99.92492381958441,
          74.25561521413572
        ]
      }
    },
    {
      "type": "Feature",
      "properties": {
        "norad_id": 40143,
        "name": "YAOGAN-21",
        "group": "resource",
        "lat": -21.97357968708116,
        "lon": 36.86558339525047,
        "alt_km": 495.9018694035649,
        "timestamp": "2025-12-16T19:34:23.922156+00:00",
        "meta_object_name": "YAOGAN-21",
        "meta_object_id": "2014-053A",
        "meta_epoch": "2025-12-15T23:10:50.799072",
        "meta_mean_motion": 15.23714289,
        "meta_eccentricity": 0.00095314,
        "meta_inclination": 97.176,
        "meta_ra_of_asc_node": 33.1387,
        "meta_arg_of_pericenter": 31.3842,
        "meta_mean_anomaly": 328.7962,
        "meta_ephemeris_type": 0,
        "meta_classification_type": "U",
        "meta_norad_cat_id": 40143,
        "meta_element_set_no": 999,
        "meta_rev_at_epoch": 62703,
        "meta_bstar": 0.0001791857,
        "meta_mean_motion_dot": 4.24e-05,
        "meta_mean_motion_ddot": 0,
        "tle_line1": "1 40143U 14053A   25349.96586573  .00004240  00000+0  17919-3 0  9996",
        "tle_line2": "2 40143  97.1760  33.1387 0009531  31.3842 328.7962 15.23714289627035"
      },
      "geometry": {
        "type": "Point",
        "coordinates": [
          36.86558339525047,
          -21.97357968708116
        ]
      }
    },
    {
      "type": "Feature",
      "properties": {
        "norad_id": 40275,
        "name": "YAOGAN-22",
        "group": "resource",
        "lat": 3.5347537174808394,
        "lon": 133.6202580982314,
        "alt_km": 1206.7118064789684,
        "timestamp": "2025-12-16T19:34:23.922166+00:00",
        "meta_object_name": "YAOGAN-22",
        "meta_object_id": "2014-063A",
        "meta_epoch": "2025-12-15T21:39:07.972704",
        "meta_mean_motion": 13.15522774,
        "meta_eccentricity": 0.00059708,
        "meta_inclination": 100.7422,
        "meta_ra_of_asc_node": 133.3663,
        "meta_arg_of_pericenter": 240.4616,
        "meta_mean_anomaly": 119.5901,
        "meta_ephemeris_type": 0,
        "meta_classification_type": "U",
        "meta_norad_cat_id": 40275,
        "meta_element_set_no": 999,
        "meta_rev_at_epoch": 53571,
        "meta_bstar": 8.7557771e-05,
        "meta_mean_motion_dot": -1.4e-07,
        "meta_mean_motion_ddot": 0,
        "tle_line1": "1 40275U 14063A   25349.90217561 -.00000014  00000+0  87558-4 0  9998",
        "tle_line2": "2 40275 100.7422 133.3663 0005970 240.4616 119.5901 13.15522774535719"
      },
      "geometry": {
        "type": "Point",
        "coordinates": [
          133.6202580982314,
          3.5347537174808394
        ]
      }
    },
    {
      "type": "Feature",
      "properties": {
        "norad_id": 40298,
        "name": "ASNARO",
        "group": "resource",
        "lat": -34.809036450806786,
        "lon": 71.82165213039366,
        "alt_km": 516.6204180012455,
        "timestamp": "2025-12-16T19:34:23.922177+00:00",
        "meta_object_name": "ASNARO",
        "meta_object_id": "2014-070A",
        "meta_epoch": "2025-12-15T23:10:56.856576",
        "meta_mean_motion": 15.19562397,
        "meta_eccentricity": 0.00055926,
        "meta_inclination": 97.3649,
        "meta_ra_of_asc_node": 65.8334,
        "meta_arg_of_pericenter": 113.2305,
        "meta_mean_anomaly": 246.9519,
        "meta_ephemeris_type": 0,
        "meta_classification_type": "U",
        "meta_norad_cat_id": 40298,
        "meta_element_set_no": 999,
        "meta_rev_at_epoch": 61618,
        "meta_bstar": 0.00027784245,
        "meta_mean_motion_dot": 5.845e-05,
        "meta_mean_motion_ddot": 0,
        "tle_line1": "1 40298U 14070A   25349.96593584  .00005845  00000+0  27784-3 0  9999",
        "tle_line2": "2 40298  97.3649  65.8334 0005592 113.2305 246.9519 15.19562397616184"
      },
      "geometry": {
        "type": "Point",
        "coordinates": [
          71.82165213039366,
          -34.809036450806786
        ]
      }
    },
    {
      "type": "Feature",
      "properties": {
        "norad_id": 40310,
        "name": "YAOGAN-24",
        "group": "resource",
        "lat": 21.8637350033861,
        "lon": 118.64460204607123,
        "alt_km": 643.5464246690526,
        "timestamp": "2025-12-16T19:34:23.922187+00:00",
        "meta_object_name": "YAOGAN-24",
        "meta_object_id": "2014-072A",
        "meta_epoch": "2025-12-15T22:19:30.253728",
        "meta_mean_motion": 14.76185289,
        "meta_eccentricity": 0.00148661,
        "meta_inclination": 98.1214,
        "meta_ra_of_asc_node": 121.0397,
        "meta_arg_of_pericenter": 128.2599,
        "meta_mean_anomaly": 231.995,
        "meta_ephemeris_type": 0,
        "meta_classification_type": "U",
        "meta_norad_cat_id": 40310,
        "meta_element_set_no": 999,
        "meta_rev_at_epoch": 59668,
        "meta_bstar": 0.00015981311,
        "meta_mean_motion_dot": 1.054e-05,
        "meta_mean_motion_ddot": 0,
        "tle_line1": "1 40310U 14072A   25349.93021127  .00001054  00000+0  15981-3 0  9996",
        "tle_line2": "2 40310  98.1214 121.0397 0014866 128.2599 231.9950 14.76185289596683"
      },
      "geometry": {
        "type": "Point",
        "coordinates": [
          118.64460204607123,
          21.8637350033861
        ]
      }
    },
    {
      "type": "Feature",
      "properties": {
        "norad_id": 40336,
        "name": "CBERS 4",
        "group": "resource",
        "lat": -65.77977085632034,
        "lon": -150.3172590186698,
        "alt_km": 781.5114365580494,
        "timestamp": "2025-12-16T19:34:23.922197+00:00",
        "meta_object_name": "CBERS 4",
        "meta_object_id": "2014-079A",
        "meta_epoch": "2025-12-16T00:01:28.070112",
        "meta_mean_motion": 14.35518749,
        "meta_eccentricity": 0.00017074,
        "meta_inclination": 98.3309,
        "meta_ra_of_asc_node": 47.9063,
        "meta_arg_of_pericenter": 108.2894,
        "meta_mean_anomaly": 251.8478,
        "meta_ephemeris_type": 0,
        "meta_classification_type": "U",
        "meta_norad_cat_id": 40336,
        "meta_element_set_no": 999,
        "meta_rev_at_epoch": 57767,
        "meta_bstar": 3.2616705e-05,
        "meta_mean_motion_dot": 5.2e-07,
        "meta_mean_motion_ddot": 0,
        "tle_line1": "1 40336U 14079A   25350.00101933  .00000052  00000+0  32617-4 0  9998",
        "tle_line2": "2 40336  98.3309  47.9063 0001707 108.2894 251.8478 14.35518749577670"
      },
      "geometry": {
        "type": "Point",
        "coordinates": [
          -150.3172590186698,
          -65.77977085632034
        ]
      }
    }
  ]
}